{
  "norad_id": 62582,
  "name": "CENTISPACE-1 S13",
  "history": [
    {
      "epoch": "2026-04-13T05:02:55.777056Z",
      "apogee_km": 968.7531123290482,
      "perigee_km": 954.791137191929,
      "latitude_deg": 5.113140722078312e-05,
      "longitude_deg": -118.41678585939275,
      "height_km": 957.1422697777665,
      "semi_major_axis_km": 7339.909124760488,
      "eccentricity": 0.0009511,
      "inclination_deg": 54.9795,
      "raan_deg": 158.72,
      "arg_perigee_deg": 324.1095,
      "mean_anomaly_deg": 35.9222,
      "mean_motion_rev_day": 13.80596403
    },
    {
      "epoch": "2026-04-14T15:48:09.697248Z",
      "apogee_km": 968.823848243549,
      "perigee_km": 954.7194797548073,
      "latitude_deg": -6.073609738130537e-05,
      "longitude_deg": 73.7838462275935,
      "height_km": 956.8614526647699,
      "semi_major_axis_km": 7339.908663999177,
      "eccentricity": 0.0009608,
      "inclination_deg": 54.9792,
      "raan_deg": 153.656,
      "arg_perigee_deg": 327.3187,
      "mean_anomaly_deg": 32.7173,
      "mean_motion_rev_day": 13.80596533
    },
    {
      "epoch": "2026-04-15T19:36:20.813184Z",
      "apogee_km": 968.8929600662832,
      "perigee_km": 954.6491345097156,
      "latitude_deg": 6.2699573386185985e-06,
      "longitude_deg": 11.544446447019803,
      "height_km": 956.6409627923884,
      "semi_major_axis_km": 7339.908047287999,
      "eccentricity": 0.0009703,
      "inclination_deg": 54.9792,
      "raan_deg": 149.6047,
      "arg_perigee_deg": 329.8026,
      "mean_anomaly_deg": 30.237,
      "mean_motion_rev_day": 13.80596707
    },
    {
      "epoch": "2026-04-16T19:56:00.537792Z",
      "apogee_km": 968.9498175451154,
      "perigee_km": 954.5914901926171,
      "latitude_deg": 6.869683280653322e-06,
      "longitude_deg": 2.0850264120020547,
      "height_km": 956.4570923698824,
      "semi_major_axis_km": 7339.907653868866,
      "eccentricity": 0.0009781,
      "inclination_deg": 54.9791,
      "raan_deg": 146.0599,
      "arg_perigee_deg": 331.999,
      "mean_anomaly_deg": 28.0439,
      "mean_motion_rev_day": 13.80596818
    },
    {
      "epoch": "2026-04-17T21:59:55.948128Z",
      "apogee_km": 969.0156272619379,
      "perigee_km": 954.5250354102673,
      "latitude_deg": -3.964301464737531e-05,
      "longitude_deg": -33.764348632914384,
      "height_km": 956.2669774696668,
      "semi_major_axis_km": 7339.907331336102,
      "eccentricity": 0.00098711,
      "inclination_deg": 54.9791,
      "raan_deg": 142.2619,
      "arg_perigee_deg": 334.2966,
      "mean_anomaly_deg": 25.7498,
      "mean_motion_rev_day": 13.80596909
    },
    {
      "epoch": "2026-04-18T18:51:04.264128Z",
      "apogee_km": 969.0673124209743,
      "perigee_km": 954.472641388098,
      "latitude_deg": -2.4007660115356724e-05,
      "longitude_deg": 9.55613841467778,
      "height_km": 956.1208761629488,
      "semi_major_axis_km": 7339.906976904535,
      "eccentricity": 0.0009942,
      "inclination_deg": 54.9791,
      "raan_deg": 139.2234,
      "arg_perigee_deg": 336.1456,
      "mean_anomaly_deg": 23.9038,
      "mean_motion_rev_day": 13.80597009
    },
    {
      "epoch": "2026-04-19T19:10:43.968000Z",
      "apogee_km": 969.1197907733003,
      "perigee_km": 954.4194258182051,
      "latitude_deg": 1.596033901840213e-05,
      "longitude_deg": 0.09682951621789176,
      "height_km": 955.9646418581841,
      "semi_major_axis_km": 7339.906608295752,
      "eccentricity": 0.0010014,
      "inclination_deg": 54.979,
      "raan_deg": 135.6786,
      "arg_perigee_deg": 338.3067,
      "mean_anomaly_deg": 21.7464,
      "mean_motion_rev_day": 13.80597113
    },
    {
      "epoch": "2026-04-20T12:33:20.893536Z",
      "apogee_km": 969.1552558358526,
      "perigee_km": 954.3834007539062,
      "latitude_deg": 5.503863300326699e-05,
      "longitude_deg": 96.19725404780546,
      "height_km": 955.8608362186353,
      "semi_major_axis_km": 7339.906328294879,
      "eccentricity": 0.00100627,
      "inclination_deg": 54.9789,
      "raan_deg": 133.1465,
      "arg_perigee_deg": 339.8297,
      "mean_anomaly_deg": 20.2261,
      "mean_motion_rev_day": 13.80597192
    },
    {
      "epoch": "2026-04-21T19:50:03.355008Z",
      "apogee_km": 969.2307435639677,
      "perigee_km": 954.3072466946696,
      "latitude_deg": -3.355949996970081e-05,
      "longitude_deg": -18.821994502499876,
      "height_km": 955.6750516456017,
      "semi_major_axis_km": 7339.905995129318,
      "eccentricity": 0.0010166,
      "inclination_deg": 54.9788,
      "raan_deg": 128.5888,
      "arg_perigee_deg": 342.5435,
      "mean_anomaly_deg": 17.517,
      "mean_motion_rev_day": 13.80597286
    },
    {
      "epoch": "2026-04-22T18:25:27.357600Z",
      "apogee_km": 969.2907711355392,
      "perigee_km": 954.2469001348218,
      "latitude_deg": 3.338031412566151e-05,
      "longitude_deg": -1.8914993219362364,
      "height_km": 955.5432753192455,
      "semi_major_axis_km": 7339.905835635181,
      "eccentricity": 0.0010248,
      "inclination_deg": 54.9787,
      "raan_deg": 125.297,
      "arg_perigee_deg": 344.5308,
      "mean_anomaly_deg": 15.5334,
      "mean_motion_rev_day": 13.80597331
    },
    {
      "epoch": "2026-04-23T13:32:19.974048Z",
      "apogee_km": 969.3365309037472,
      "perigee_km": 954.2007646693337,
      "latitude_deg": 1.3948873218519671e-05,
      "longitude_deg": 67.81894099367443,
      "height_km": 955.4430502926319,
      "semi_major_axis_km": 7339.90564778654,
      "eccentricity": 0.00103106,
      "inclination_deg": 54.9787,
      "raan_deg": 122.5117,
      "arg_perigee_deg": 346.1944,
      "mean_anomaly_deg": 13.8729,
      "mean_motion_rev_day": 13.80597384
    },
    {
      "epoch": "2026-04-24T19:04:46.737696Z",
      "apogee_km": 969.4047272743819,
      "perigee_km": 954.1318523473437,
      "latitude_deg": -2.6259937546736927e-06,
      "longitude_deg": -20.81038347176849,
      "height_km": 955.3032676150157,
      "semi_major_axis_km": 7339.905289810863,
      "eccentricity": 0.0010404,
      "inclination_deg": 54.9788,
      "raan_deg": 118.2071,
      "arg_perigee_deg": 348.6966,
      "mean_anomaly_deg": 11.3755,
      "mean_motion_rev_day": 13.80597485
    },
    {
      "epoch": "2026-04-25T19:24:26.419968Z",
      "apogee_km": 969.4613931109889,
      "perigee_km": 954.0740168874272,
      "latitude_deg": -3.92018882529389e-05,
      "longitude_deg": -30.269854707594725,
      "height_km": 955.1971343814641,
      "semi_major_axis_km": 7339.904704999208,
      "eccentricity": 0.0010482,
      "inclination_deg": 54.9788,
      "raan_deg": 114.6621,
      "arg_perigee_deg": 350.7448,
      "mean_anomaly_deg": 9.3313,
      "mean_motion_rev_day": 13.8059765
    },
    {
      "epoch": "2026-04-26T23:12:37.483200Z",
      "apogee_km": 969.5302844285625,
      "perigee_km": 954.0043316438596,
      "latitude_deg": -7.592368950606402e-06,
      "longitude_deg": -92.50906058615922,
      "height_km": 955.0822590344335,
      "semi_major_axis_km": 7339.904308036211,
      "eccentricity": 0.00105764,
      "inclination_deg": 54.979,
      "raan_deg": 110.6108,
      "arg_perigee_deg": 353.1521,
      "mean_anomaly_deg": 6.9289,
      "mean_motion_rev_day": 13.80597762
    },
    {
      "epoch": "2026-04-27T20:03:45.773280Z",
      "apogee_km": 969.583199584772,
      "perigee_km": 953.9506721821263,
      "latitude_deg": 6.831240571785786e-06,
      "longitude_deg": -49.18846547223105,
      "height_km": 955.0033531363893,
      "semi_major_axis_km": 7339.903935883449,
      "eccentricity": 0.0010649,
      "inclination_deg": 54.9791,
      "raan_deg": 107.5723,
      "arg_perigee_deg": 354.9395,
      "mean_anomaly_deg": 5.1452,
      "mean_motion_rev_day": 13.80597867
    },
    {
      "epoch": "2026-04-28T18:39:09.743040Z",
      "apogee_km": 969.6342205531391,
      "perigee_km": 953.8989352628214,
      "latitude_deg": -1.2878076781796598e-06,
      "longitude_deg": -32.257782435702666,
      "height_km": 954.9330227974524,
      "semi_major_axis_km": 7339.90357790798,
      "eccentricity": 0.0010719,
      "inclination_deg": 54.9792,
      "raan_deg": 104.2806,
      "arg_perigee_deg": 356.8033,
      "mean_anomaly_deg": 3.2853,
      "mean_motion_rev_day": 13.80597968
    },
    {
      "epoch": "2026-04-29T18:58:49.395072Z",
      "apogee_km": 969.6923507907713,
      "perigee_km": 953.8396283139373,
      "latitude_deg": -5.053154733056218e-05,
      "longitude_deg": -41.716935565602796,
      "height_km": 954.8626547130216,
      "semi_major_axis_km": 7339.9029895523545,
      "eccentricity": 0.0010799,
      "inclination_deg": 54.9794,
      "raan_deg": 100.7358,
      "arg_perigee_deg": 358.8493,
      "mean_anomaly_deg": 1.2436,
      "mean_motion_rev_day": 13.80598134
    },
    {
      "epoch": "2026-04-30T12:21:26.286912Z",
      "apogee_km": 969.7331774912054,
      "perigee_km": 953.7982487010731,
      "latitude_deg": 5.325225618170939e-05,
      "longitude_deg": 54.38367607699646,
      "height_km": 954.8194604963488,
      "semi_major_axis_km": 7339.9027130961385,
      "eccentricity": 0.0010855,
      "inclination_deg": 54.9795,
      "raan_deg": 98.2037,
      "arg_perigee_deg": 0.319,
      "mean_anomaly_deg": 359.7772,
      "mean_motion_rev_day": 13.80598212
    },
    {
      "epoch": "2026-05-02T09:32:14.184960Z",
      "apogee_km": 969.840920998965,
      "perigee_km": 953.6887330384261,
      "latitude_deg": 1.6152234597908673e-05,
      "longitude_deg": 88.24539705204737,
      "height_km": 954.7297300371332,
      "semi_major_axis_km": 7339.901827018695,
      "eccentricity": 0.0011003,
      "inclination_deg": 54.9798,
      "raan_deg": 91.6205,
      "arg_perigee_deg": 4.1142,
      "mean_anomaly_deg": 355.9903,
      "mean_motion_rev_day": 13.80598462
    }
  ]
}